NORAD_CAT_ID,OBJECT_NAME,OBJECT_TYPE,EPOCH,MEAN_MOTION,ECCENTRICITY,INCLINATION,RA_OF_ASC_NODE,ARG_OF_PERICENTER,MEAN_ANOMALY,BSTAR,MEAN_MOTION_DOT,MEAN_MOTION_DDOT,TLE_LINE0,TLE_LINE1,TLE_LINE2,SEMIMAJOR_AXIS,PERIOD,APOGEE,PERIGEE,DECAYED
54166.0,STARLINK-5280,PAYLOAD,2023-05-24 15:28:25,15.08843206,0.0001194,53.2166,263.4161,98.5925,261.5203,6.6523e-05,7.71e-06,0.0,0 STARLINK-5280,1 54166U 22141K   23144.64474093  .00000771  00000-0  66523-4 0  9994,2 54166  53.2166 263.4161 0001194  98.5925 261.5203 15.08843206 31867,6917.871,95.437,540.562,538.91,0.0
54166.0,STARLINK-5280,PAYLOAD,2023-05-25 13:43:49,15.08843994,0.0001022,53.2168,259.2448,88.8955,271.2154,0.00015175,2.128e-05,0.0,0 STARLINK-5280,1 54166U 22141K   23145.57210036  .00002128  00000-0  15175-3 0  9996,2 54166  53.2168 259.2448 0001022  88.8955 271.2154 15.08843994 32009,6917.868,95.437,540.44,539.026,0.0
54166.0,STARLINK-5280,PAYLOAD,2023-05-25 15:19:12,15.08846555,0.0001059,53.2171,258.9474,88.0596,272.0518,0.00018715,2.692e-05,0.0,0 STARLINK-5280,1 54166U 22141K   23145.63833912  .00002692  00000-0  18715-3 0  9996,2 54166  53.2171 258.9474 0001059  88.0596 272.0518 15.08846555 32011,6917.86,95.437,540.458,538.993,0.0
54166.0,STARLINK-5280,PAYLOAD,2023-05-26 13:34:36,15.08843971,0.0001003,53.2158,254.7883,82.5826,277.528,6.0372e-05,6.73e-06,0.0,0 STARLINK-5280,1 54166U 22141K   23146.56570076  .00000673  00000-0  60372-4 0  9992,2 54166  53.2158 254.7883 0001003  82.5826 277.5280 15.08843971 32158,6917.868,95.437,540.427,539.039,0.0
54166.0,STARLINK-5280,PAYLOAD,2023-05-26 16:45:22,15.08846855,0.0001048,53.216,254.1926,81.5488,278.5623,0.00011685,1.573e-05,0.0,0 STARLINK-5280,1 54166U 22141K   23146.69817907  .00001573  00000-0  11685-3 0  9995,2 54166  53.2160 254.1926 0001048  81.5488 278.5623 15.08846855 32173,6917.859,95.437,540.449,538.999,0.0
54166.0,STARLINK-5280,PAYLOAD,2023-05-27 10:14:37,15.08836929,8.15e-05,53.2157,250.9206,97.6949,262.4136,4.605e-05,4.45e-06,0.0,0 STARLINK-5280,1 54166U 22141K   23147.42682303  .00000445  00000-0  46050-4 0  9999,2 54166  53.2157 250.9206 0000815  97.6949 262.4136 15.08836929 32289,6917.89,95.438,540.319,539.191,0.0
54166.0,STARLINK-5280,PAYLOAD,2023-05-27 16:36:09,15.08849354,0.0001073,53.2169,249.7308,104.3381,255.773,-5.4816e-05,-1.16e-05,0.0,0 STARLINK-5280,1 54166U 22141K   23147.69177895 -.00001160  00000-0 -54816-4 0  9999,2 54166  53.2169 249.7308 0001073 104.3381 255.7730 15.08849354 32320,6917.852,95.437,540.459,538.975,0.0
54166.0,STARLINK-5280,PAYLOAD,2023-05-28 16:26:56,15.08847911,0.000103,53.2169,245.27,104.288,255.8226,9.3454e-05,1.2e-05,0.0,0 STARLINK-5280,1 54166U 22141K   23148.68537567  .00001200  00000-0  93454-4 0  9999,2 54166  53.2169 245.2700 0001030 104.2880 255.8226 15.08847911 32477,6917.856,95.437,540.434,539.009,0.0
54166.0,STARLINK-5280,PAYLOAD,2023-05-29 09:56:11,15.08839177,0.0001039,53.2168,241.9986,105.0076,255.1031,8.952e-05,1.137e-05,0.0,0 STARLINK-5280,1 54166U 22141K   23149.41402090  .00001137  00000-0  89520-4 0  9991,2 54166  53.2168 241.9986 0001039 105.0076 255.1031 15.08839177 32584,6917.883,95.438,540.467,539.029,0.0
54166.0,STARLINK-5280,PAYLOAD,2023-05-29 11:31:34,15.08839927,0.000104,53.2169,241.7013,104.8406,255.2702,9.2892e-05,1.191e-05,0.0,0 STARLINK-5280,1 54166U 22141K   23149.48026016  .00001191  00000-0  92892-4 0  9994,2 54166  53.2169 241.7013 0001040 104.8406 255.2702 15.08839927 32590,6917.881,95.438,540.465,539.026,0.0
54166.0,STARLINK-5280,PAYLOAD,2023-05-30 05:00:49,15.08835684,0.0001067,53.2169,238.4341,89.8774,270.2341,3.0459e-05,1.97e-06,0.0,0 STARLINK-5280,1 54166U 22141K   23150.20890552  .00000197  00000-0  30459-4 0  9996,2 54166  53.2169 238.4341 0001067  89.8774 270.2341 15.08835684 32701,6917.894,95.438,540.497,539.02,0.0
54166.0,STARLINK-5280,PAYLOAD,2023-05-30 11:22:22,15.0883716,0.0001072,53.2172,237.2433,101.2729,258.8383,-3.6642e-05,-8.71e-06,0.0,0 STARLINK-5280,1 54166U 22141K   23150.47386679 -.00000871  00000-0 -36642-4 0  9996,2 54166  53.2172 237.2433 0001072 101.2729 258.8383 15.08837160 32742,6917.889,95.438,540.496,539.012,0.0
54166.0,STARLINK-5280,PAYLOAD,2023-05-30 12:57:45,15.08836781,0.0001025,53.2172,236.9471,93.0851,267.0258,-2.9086e-05,-7.51e-06,0.0,0 STARLINK-5280,1 54166U 22141K   23150.54010703 -.00000751  00000-0 -29086-4 0  9997,2 54166  53.2172 236.9471 0001025  93.0851 267.0258 15.08836781 32754,6917.89,95.438,540.464,539.046,0.0
54166.0,STARLINK-5280,PAYLOAD,2023-05-31 09:37:45,15.08836808,0.0001102,53.2179,233.0819,107.1723,252.9389,5.3357e-05,5.61e-06,0.0,0 STARLINK-5280,1 54166U 22141K   23151.40122604  .00000561  00000-0  53357-4 0  9992,2 54166  53.2179 233.0819 0001102 107.1723 252.9389 15.08836808 32888,6917.89,95.438,540.517,538.993,0.0
54166.0,STARLINK-5280,PAYLOAD,2023-05-31 12:48:32,15.088389,0.0001092,53.2176,232.4871,104.8257,255.2856,6.8537e-05,8.03e-06,0.0,0 STARLINK-5280,1 54166U 22141K   23151.53370459  .00000803  00000-0  68537-4 0  9994,2 54166  53.2176 232.4871 0001092 104.8257 255.2856 15.08838900 32903,6917.884,95.438,540.504,538.993,0.0
54166.0,STARLINK-5280,PAYLOAD,2023-06-01 11:03:56,15.08837246,0.0001058,53.2172,228.3237,83.0999,277.0114,9.6567e-05,1.249e-05,0.0,0 STARLINK-5280,1 54166U 22141K   23152.46106761  .00001249  00000-0  96567-4 0  9999,2 54166  53.2172 228.3237 0001058  83.0999 277.0114 15.08837246 33049,6917.889,95.438,540.486,539.022,0.0
54166.0,STARLINK-5280,PAYLOAD,2023-06-02 12:30:06,15.08839017,0.0001094,53.2171,223.5663,80.8575,279.2541,4.893e-05,4.91e-06,0.0,0 STARLINK-5280,1 54166U 22141K   23153.52090959  .00000491  00000-0  48930-4 0  9997,2 54166  53.2171 223.5663 0001094  80.8575 279.2541 15.08839017 33207,6917.883,95.438,540.505,538.992,0.0
54166.0,STARLINK-5280,PAYLOAD,2023-06-03 10:45:30,15.08842396,9.94e-05,53.2163,219.4021,84.1122,275.9983,6.3796e-05,7.28e-06,0.0,0 STARLINK-5280,1 54166U 22141K   23154.44826628  .00000728  00000-0  63796-4 0  9999,2 54166  53.2163 219.4021 0000994  84.1122 275.9983 15.08842396 33345,6917.873,95.437,540.426,539.05,0.0
54166.0,STARLINK-5280,PAYLOAD,2023-06-03 23:28:35,15.08840825,9.7e-05,53.216,217.0234,82.7613,277.3489,6.4733e-05,7.43e-06,0.0,0 STARLINK-5280,1 54166U 22141K   23154.97818649  .00000743  00000-0  64733-4 0  9990,2 54166  53.2160 217.0234 0000970  82.7613 277.3489 15.08840825 33426,6917.878,95.438,540.414,539.072,0.0
54166.0,STARLINK-5280,PAYLOAD,2023-06-04 10:36:17,15.08839805,8.81e-05,53.2159,214.9409,92.9005,267.2088,5.341e-05,5.62e-06,0.0,0 STARLINK-5280,1 54166U 22141K   23155.44186747  .00000562  00000-0  53410-4 0  9999,2 54166  53.2159 214.9409 0000881  92.9005 267.2088 15.08839805 33499,6917.881,95.438,540.355,539.137,0.0
54166.0,STARLINK-5280,PAYLOAD,2023-06-04 23:19:22,15.08836525,8.78e-05,53.2158,212.5622,90.7874,269.3219,3.2733e-05,2.33e-06,0.0,0 STARLINK-5280,1 54166U 22141K   23155.97179035  .00000233  00000-0  32733-4 0  9999,2 54166  53.2158 212.5622 0000878  90.7874 269.3219 15.08836525 33579,6917.891,95.438,540.363,539.149,0.0
54166.0,STARLINK-5280,PAYLOAD,2023-06-05 10:27:04,15.08835335,8.66e-05,53.2157,210.4803,95.3558,264.7533,-2.4484e-06,-3.27e-06,0.0,0 STARLINK-5280,1 54166U 22141K   23156.43547269 -.00000327  00000-0 -24484-5 0  9990,2 54166  53.2157 210.4803 0000866  95.3558 264.7533 15.08835335 33647,6917.895,95.438,540.359,539.161,0.0
54166.0,STARLINK-5280,PAYLOAD,2023-06-06 08:42:28,15.08837712,8.75e-05,53.2159,206.3183,84.5749,275.5343,6.3104e-05,7.17e-06,0.0,0 STARLINK-5280,1 54166U 22141K   23157.36283141  .00000717  00000-0  63104-4 0  9991,2 54166  53.2159 206.3183 0000875  84.5749 275.5343 15.08837712 33781,6917.887,95.438,540.358,539.147,0.0
54166.0,STARLINK-5280,PAYLOAD,2023-06-06 10:17:51,15.08838993,8.82e-05,53.2158,206.0205,95.5408,264.5685,7.679e-05,9.35e-06,0.0,0 STARLINK-5280,1 54166U 22141K   23157.42906994  .00000935  00000-0  76790-4 0  9993,2 54166  53.2158 206.0205 0000882  95.5408 264.5685 15.08838993 33794,6917.883,95.438,540.359,539.138,0.0
54166.0,STARLINK-5280,PAYLOAD,2023-06-07 08:33:15,15.08835298,8.59e-05,53.216,201.8583,90.6089,269.5002,7.6677e-05,9.33e-06,0.0,0 STARLINK-5280,1 54166U 22141K   23158.35643456  .00000933  00000-0  76677-4 0  9999,2 54166  53.2160 201.8583 0000859  90.6089 269.5002 15.08835298 33933,6917.895,95.438,540.354,539.166,0.0
54166.0,STARLINK-5280,PAYLOAD,2023-06-07 19:40:57,15.08838707,8.58e-05,53.216,199.7768,87.5447,272.5643,5.4368e-05,5.78e-06,0.0,0 STARLINK-5280,1 54166U 22141K   23158.82011380  .00000578  00000-0  54368-4 0  9994,2 54166  53.2160 199.7768 0000858  87.5447 272.5643 15.08838707 34007,6917.884,95.438,540.343,539.156,0.0
54166.0,STARLINK-5280,PAYLOAD,2023-06-07 22:51:44,15.08836604,8.8e-05,53.216,199.1821,86.8924,273.2168,3.7818e-05,3.14e-06,0.0,0 STARLINK-5280,1 54166U 22141K   23158.95259584  .00000314  00000-0  37818-4 0  9997,2 54166  53.2160 199.1821 0000880  86.8924 273.2168 15.08836604 34024,6917.891,95.438,540.365,539.147,0.0
54166.0,STARLINK-5280,PAYLOAD,2023-06-08 11:34:49,15.08837868,8.89e-05,53.2157,196.803,85.1832,274.9262,2.6699e-05,1.37e-06,0.0,0 STARLINK-5280,1 54166U 22141K   23159.48251653  .00000137  00000-0  26699-4 0  9993,2 54166  53.2157 196.8030 0000889  85.1832 274.9262 15.08837868 34100,6917.887,95.438,540.367,539.137,0.0
54166.0,STARLINK-5280,PAYLOAD,2023-06-09 06:39:26,15.08839556,9.08e-05,53.2156,193.2342,82.3766,277.733,5.8962e-05,6.51e-06,0.0,0 STARLINK-5280,1 54166U 22141K   23160.27739535  .00000651  00000-0  58962-4 0  9991,2 54166  53.2156 193.2342 0000908  82.3766 277.7330 15.08839556 34229,6917.882,95.438,540.375,539.119,0.0
54166.0,STARLINK-5280,PAYLOAD,2023-06-09 09:50:13,15.08840394,9.1e-05,53.2156,192.6396,81.6733,278.4362,6.3594e-05,7.25e-06,0.0,0 STARLINK-5280,1 54166U 22141K   23160.40987474  .00000725  00000-0  63594-4 0  9992,2 54166  53.2156 192.6396 0000910  81.6733 278.4362 15.08840394 34247,6917.879,95.438,540.374,539.115,0.0
